[{"OBJECT_NAME":"AMAZONIA 1","OBJECT_ID":"2021-015A","EPOCH":"2026-03-09T17:05:01.705920","MEAN_MOTION":14.40836291,"ECCENTRICITY":0.00039353,"INCLINATION":98.4264,"RA_OF_ASC_NODE":142.7385,"ARG_OF_PERICENTER":123.8493,"MEAN_ANOMALY":236.3071,"EPHEMERIS_TYPE":0,"CLASSIFICATION_TYPE":"U","NORAD_CAT_ID":47699,"ELEMENT_SET_NO":999,"REV_AT_EPOCH":26432,"BSTAR":0.00010973552,"MEAN_MOTION_DOT":3.08e-6,"MEAN_MOTION_DDOT":0},{"OBJECT_NAME":"DELTA 1 DEB [YO]","OBJECT_ID":"1961-017D","EPOCH":"2026-03-09T13:14:41.603424","MEAN_MOTION":14.2412819,"ECCENTRICITY":0.0089648,"INCLINATION":47.8441,"RA_OF_ASC_NODE":126.2351,"ARG_OF_PERICENTER":63.6014,"MEAN_ANOMALY":297.4038,"EPHEMERIS_TYPE":0,"CLASSIFICATION_TYPE":"U","NORAD_CAT_ID":167,"ELEMENT_SET_NO":999,"REV_AT_EPOCH":35047,"BSTAR":0.00019693,"MEAN_MOTION_DOT":3.21e-6,"MEAN_MOTION_DDOT":0}]
